IDEFIX & ARIANE 42P R/B 
1 27422U 02021B   26056.39966730  .00000262  00000+0  11626-3 0  9992
2 27422  98.5857 355.1539 0010929 220.1055 139.9322 14.31016127242269
AQUA                    
1 27424U 02022A   26056.57989495  .00001011  00000+0  21165-3 0  9990
2 27424  98.4151  23.7264 0000878  49.0037  62.2438 14.61942449266967
CZ-4B R/B               
1 27432U 02024C   26056.12039053  .00000027  00000+0  36761-4 0  9993
2 27432  98.8870 109.5888 0050999  59.4948 320.7455 14.14545069227466
MIDORI II (ADEOS-II)    
1 27597U 02056A   26056.48282357  .00000256  00000+0  11831-3 0  9990
2 27597  98.7746  14.8780 0001970  60.0459 300.0917 14.29274294208556
H-2A R/B                
1 27601U 02056E   26056.50438575  .00000272  00000+0  10980-3 0  9996
2 27601  98.3178  17.3356 0069734 197.0027 274.7112 14.33751356212360
CZ-4B R/B               
1 28059U 03049C   26056.55540983  .00000398  00000+0  10292-3 0  9994
2 28059  98.6867  50.9854 0046990 268.8006  90.7806 14.55005908184830
CZ-2C R/B               
1 28222U 04012C   26056.57846613  .00049969  00000+0  54837-3 0  9998
2 28222  97.7265 120.7374 0014004 358.4403   1.6808 15.62960860202385
SL-16 R/B               
1 28353U 04021B   26056.50660603  .00000082  00000+0  67445-4 0  9992
2 28353  70.9989 258.0614 0003418  37.1991 322.9368 14.14599270121118
CZ-4B R/B               
1 28415U 04035C   26056.53976896  .00007457  00000+0  26484-3 0  9993
2 28415  97.3529  90.9295 0032532  15.1383 345.0822 15.28811280178058
CZ-2C R/B               
1 28480U 04046B   26056.35497396  .00000110  00000+0  55921-4 0  9998
2 28480  98.1989 332.1059 0139131 190.8801 168.9364 14.26987442106748
ARIANE 5 R/B            
1 28499U 04049H   26056.57365278  .00000785  00000+0  92852-4 0  9990
2 28499  98.2608 224.5789 0084795  31.1190 329.5006 14.85239405143994
CZ-2D R/B               
1 28738U 05024B   26056.51810059  .00038345  00000+0  49341-3 0  9993
2 28738  97.3619  71.2297 0007416  76.1882 284.0199 15.58941608137880
